CCSDS_OMM_VERS = 2.0
CREATION_DATE  = 
ORIGINATOR     = 

OBJECT_NAME    = SL-4 R/B
OBJECT_ID      = 2014-021B
CENTER_NAME    = EARTH
REF_FRAME      = TEME
TIME_SYSTEM    = UTC
MEAN_ELEMENT_THEORY = SGP/SGP4

EPOCH          = 2026-02-11T12:29:01.811904
MEAN_MOTION    = 15.38321441
ECCENTRICITY   = .00989019
INCLINATION    = 51.6068
RA_OF_ASC_NODE = 104.8563
ARG_OF_PERICENTER = 7.6188
MEAN_ANOMALY   = 352.6271

EPHEMERIS_TYPE = 0
CLASSIFICATION_TYPE = U
NORAD_CAT_ID   = 39679
ELEMENT_SET_NO = 999
REV_AT_EPOCH   = 65224
BSTAR          = .30452605E-3
MEAN_MOTION_DOT = .13403E-3
MEAN_MOTION_DDOT = 0

CCSDS_OMM_VERS = 2.0
CREATION_DATE  = 
ORIGINATOR     = 

OBJECT_NAME    = ALOS-2
OBJECT_ID      = 2014-029A
CENTER_NAME    = EARTH
REF_FRAME      = TEME
TIME_SYSTEM    = UTC
MEAN_ELEMENT_THEORY = SGP/SGP4

EPOCH          = 2026-02-12T05:18:36.480384
MEAN_MOTION    = 14.79447540
ECCENTRICITY   = .0001528
INCLINATION    = 97.9206
RA_OF_ASC_NODE = 142.1854
ARG_OF_PERICENTER = 108.3146
MEAN_ANOMALY   = 251.8232

EPHEMERIS_TYPE = 0
CLASSIFICATION_TYPE = U
NORAD_CAT_ID   = 39766
ELEMENT_SET_NO = 999
REV_AT_EPOCH   = 63310
BSTAR          = .55275445E-4
MEAN_MOTION_DOT = .361E-5
MEAN_MOTION_DDOT = 0

CCSDS_OMM_VERS = 2.0
CREATION_DATE  = 
ORIGINATOR     = 

OBJECT_NAME    = YAOGAN-29
OBJECT_ID      = 2015-069A
CENTER_NAME    = EARTH
REF_FRAME      = TEME
TIME_SYSTEM    = UTC
MEAN_ELEMENT_THEORY = SGP/SGP4

EPOCH          = 2026-02-12T06:57:13.960224
MEAN_MOTION    = 14.82965817
ECCENTRICITY   = .00028409
INCLINATION    = 98.0178
RA_OF_ASC_NODE = 71.6487
ARG_OF_PERICENTER = 78.3291
MEAN_ANOMALY   = 281.8241

EPHEMERIS_TYPE = 0
CLASSIFICATION_TYPE = U
NORAD_CAT_ID   = 41038
ELEMENT_SET_NO = 999
REV_AT_EPOCH   = 55211
BSTAR          = .87738449E-4
MEAN_MOTION_DOT = .658E-5
MEAN_MOTION_DDOT = 0

CCSDS_OMM_VERS = 2.0
CREATION_DATE  = 
ORIGINATOR     = 

OBJECT_NAME    = ASTRO-H (HITOMI)
OBJECT_ID      = 2016-012A
CENTER_NAME    = EARTH
REF_FRAME      = TEME
TIME_SYSTEM    = UTC
MEAN_ELEMENT_THEORY = SGP/SGP4

EPOCH          = 2026-02-11T12:31:26.123232
MEAN_MOTION    = 15.09813289
ECCENTRICITY   = .00098384
INCLINATION    = 30.9979
RA_OF_ASC_NODE = 165.3871
ARG_OF_PERICENTER = 69.3738
MEAN_ANOMALY   = 290.7954

EPHEMERIS_TYPE = 0
CLASSIFICATION_TYPE = U
NORAD_CAT_ID   = 41337
ELEMENT_SET_NO = 999
REV_AT_EPOCH   = 54827
BSTAR          = .21864815E-3
MEAN_MOTION_DOT = .3719E-4
MEAN_MOTION_DDOT = 0

CCSDS_OMM_VERS = 2.0
CREATION_DATE  = 
ORIGINATOR     = 

OBJECT_NAME    = HXMT (HUIYAN)
OBJECT_ID      = 2017-034A
CENTER_NAME    = EARTH
REF_FRAME      = TEME
TIME_SYSTEM    = UTC
MEAN_ELEMENT_THEORY = SGP/SGP4

EPOCH          = 2026-02-12T07:13:57.855648
MEAN_MOTION    = 15.17128957
ECCENTRICITY   = .00307044
INCLINATION    = 43.0131
RA_OF_ASC_NODE = 157.7843
ARG_OF_PERICENTER = 73.3956
MEAN_ANOMALY   = 287.0260

EPHEMERIS_TYPE = 0
CLASSIFICATION_TYPE = U
NORAD_CAT_ID   = 42758
ELEMENT_SET_NO = 999
REV_AT_EPOCH   = 47868
BSTAR          = .39919142E-3
MEAN_MOTION_DOT = .7924E-4
MEAN_MOTION_DDOT = 0

CCSDS_OMM_VERS = 2.0
CREATION_DATE  = 
ORIGINATOR     = 

OBJECT_NAME    = CZ-2C R/B
OBJECT_ID      = 2018-054D
CENTER_NAME    = EARTH
REF_FRAME      = TEME
TIME_SYSTEM    = UTC
MEAN_ELEMENT_THEORY = SGP/SGP4

EPOCH          = 2026-02-12T06:12:45.166176
MEAN_MOTION    = 15.99244770
ECCENTRICITY   = .00121134
INCLINATION    = 35.1284
RA_OF_ASC_NODE = 117.7468
ARG_OF_PERICENTER = 58.3645
MEAN_ANOMALY   = 301.8276

EPHEMERIS_TYPE = 0
CLASSIFICATION_TYPE = U
NORAD_CAT_ID   = 43521
ELEMENT_SET_NO = 999
REV_AT_EPOCH   = 42481
BSTAR          = .90166026E-3
MEAN_MOTION_DOT = .46823E-2
MEAN_MOTION_DDOT = .92335446E-4

CCSDS_OMM_VERS = 2.0
CREATION_DATE  = 
ORIGINATOR     = 

OBJECT_NAME    = SAOCOM 1A
OBJECT_ID      = 2018-076A
CENTER_NAME    = EARTH
REF_FRAME      = TEME
TIME_SYSTEM    = UTC
MEAN_ELEMENT_THEORY = SGP/SGP4

EPOCH          = 2026-02-12T05:47:43.061568
MEAN_MOTION    = 14.82161938
ECCENTRICITY   = .00014148
INCLINATION    = 97.8877
RA_OF_ASC_NODE = 231.7743
ARG_OF_PERICENTER = 83.0945
MEAN_ANOMALY   = 277.0429

EPHEMERIS_TYPE = 0
CLASSIFICATION_TYPE = U
NORAD_CAT_ID   = 43641
ELEMENT_SET_NO = 999
REV_AT_EPOCH   = 39759
BSTAR          = .20500409E-4
MEAN_MOTION_DOT = .111E-5
MEAN_MOTION_DDOT = 0

CCSDS_OMM_VERS = 2.0
CREATION_DATE  = 
ORIGINATOR     = 

OBJECT_NAME    = H-2A R/B
OBJECT_ID      = 2018-084L
CENTER_NAME    = EARTH
REF_FRAME      = TEME
TIME_SYSTEM    = UTC
MEAN_ELEMENT_THEORY = SGP/SGP4

EPOCH          = 2026-02-12T03:28:44.920704
MEAN_MOTION    = 15.40219951
ECCENTRICITY   = .00263354
INCLINATION    = 98.8761
RA_OF_ASC_NODE = 255.0947
ARG_OF_PERICENTER = 111.0455
MEAN_ANOMALY   = 249.3607

EPHEMERIS_TYPE = 0
CLASSIFICATION_TYPE = U
NORAD_CAT_ID   = 43682
ELEMENT_SET_NO = 999
REV_AT_EPOCH   = 40184
BSTAR          = .52296048E-3
MEAN_MOTION_DOT = .21196E-3
MEAN_MOTION_DDOT = 0

CCSDS_OMM_VERS = 2.0
CREATION_DATE  = 
ORIGINATOR     = 

OBJECT_NAME    = SAOCOM 1B
OBJECT_ID      = 2020-059A
CENTER_NAME    = EARTH
REF_FRAME      = TEME
TIME_SYSTEM    = UTC
MEAN_ELEMENT_THEORY = SGP/SGP4

EPOCH          = 2026-02-12T06:32:44.867328
MEAN_MOTION    = 14.82142646
ECCENTRICITY   = .0001438
INCLINATION    = 97.8874
RA_OF_ASC_NODE = 230.9030
ARG_OF_PERICENTER = 87.9787
MEAN_ANOMALY   = 272.1591

EPHEMERIS_TYPE = 0
CLASSIFICATION_TYPE = U
NORAD_CAT_ID   = 46265
ELEMENT_SET_NO = 999
REV_AT_EPOCH   = 29498
BSTAR          = .90596111E-4
MEAN_MOTION_DOT = .669E-5
MEAN_MOTION_DDOT = 0

CCSDS_OMM_VERS = 2.0
CREATION_DATE  = 
ORIGINATOR     = 

OBJECT_NAME    = CSS (TIANHE)
OBJECT_ID      = 2021-035A
CENTER_NAME    = EARTH
REF_FRAME      = TEME
TIME_SYSTEM    = UTC
MEAN_ELEMENT_THEORY = SGP/SGP4

EPOCH          = 2026-02-12T05:41:51.745344
MEAN_MOTION    = 15.59536312
ECCENTRICITY   = .00041869
INCLINATION    = 41.4683
RA_OF_ASC_NODE = 2.8971
ARG_OF_PERICENTER = 69.0977
MEAN_ANOMALY   = 291.0309

EPHEMERIS_TYPE = 0
CLASSIFICATION_TYPE = U
NORAD_CAT_ID   = 48274
ELEMENT_SET_NO = 999
REV_AT_EPOCH   = 27363
BSTAR          = .3363121E-3
MEAN_MOTION_DOT = .27248E-3
MEAN_MOTION_DDOT = 0

CCSDS_OMM_VERS = 2.0
CREATION_DATE  = 
ORIGINATOR     = 

OBJECT_NAME    = COSMOS 2550
OBJECT_ID      = 2021-056A
CENTER_NAME    = EARTH
REF_FRAME      = TEME
TIME_SYSTEM    = UTC
MEAN_ELEMENT_THEORY = SGP/SGP4

EPOCH          = 2026-02-12T05:12:10.833984
MEAN_MOTION    = 15.33827954
ECCENTRICITY   = .00083168
INCLINATION    = 67.1431
RA_OF_ASC_NODE = 117.9841
ARG_OF_PERICENTER = 270.1428
MEAN_ANOMALY   = 89.8774

EPHEMERIS_TYPE = 0
CLASSIFICATION_TYPE = U
NORAD_CAT_ID   = 48865
ELEMENT_SET_NO = 999
REV_AT_EPOCH   = 25955
BSTAR          = .4583436E-5
MEAN_MOTION_DOT = -.41E-6
MEAN_MOTION_DDOT = 0

CCSDS_OMM_VERS = 2.0
CREATION_DATE  = 
ORIGINATOR     = 

OBJECT_NAME    = CZ-2C R/B
OBJECT_ID      = 2022-058K
CENTER_NAME    = EARTH
REF_FRAME      = TEME
TIME_SYSTEM    = UTC
MEAN_ELEMENT_THEORY = SGP/SGP4

EPOCH          = 2026-02-12T03:58:35.586624
MEAN_MOTION    = 15.52423580
ECCENTRICITY   = .00422271
INCLINATION    = 50.1889
RA_OF_ASC_NODE = 89.4004
ARG_OF_PERICENTER = 92.2514
MEAN_ANOMALY   = 268.3292

EPHEMERIS_TYPE = 0
CLASSIFICATION_TYPE = U
NORAD_CAT_ID   = 52794
ELEMENT_SET_NO = 999
REV_AT_EPOCH   = 20616
BSTAR          = .49977888E-3
MEAN_MOTION_DOT = .31977E-3
MEAN_MOTION_DDOT = 0

