SL-4 R/B                
1 39679U 14021B   26042.52015986  .00013403  00000+0  30453-3 0  9990
2 39679  51.6068 104.8563 0098901   7.6188 352.6271 15.38321441652243
ALOS-2                  
1 39766U 14029A   26043.22125556  .00000361  00000+0  55275-4 0  9997
2 39766  97.9206 142.1854 0001528 108.3146 251.8232 14.79447540633101
YAOGAN-29               
1 41038U 15069A   26043.28974491  .00000658  00000+0  87738-4 0  9991
2 41038  98.0178  71.6487 0002840  78.3291 281.8241 14.82965817552119
ASTRO-H (HITOMI)        
1 41337U 16012A   26042.52183013  .00003719  00000+0  21865-3 0  9999
2 41337  30.9979 165.3871 0009838  69.3738 290.7954 15.09813289548270
HXMT (HUIYAN)           
1 42758U 17034A   26043.30136407  .00007924  00000+0  39919-3 0  9995
2 42758  43.0131 157.7843 0030704  73.3956 287.0260 15.17128957478686
CZ-2C R/B               
1 43521U 18054D   26043.25885609  .00468230  92335-4  90166-3 0  9995
2 43521  35.1284 117.7468 0012113  58.3645 301.8276 15.99244770424817
SAOCOM 1A               
1 43641U 18076A   26043.24147062  .00000111  00000+0  20500-4 0  9994
2 43641  97.8877 231.7743 0001414  83.0945 277.0429 14.82161938397599
H-2A R/B                
1 43682U 18084L   26043.14496436  .00021196  00000+0  52296-3 0  9991
2 43682  98.8761 255.0947 0026335 111.0455 249.3607 15.40219951401847
SAOCOM 1B               
1 46265U 20059A   26043.27274152  .00000669  00000+0  90596-4 0  9997
2 46265  97.8874 230.9030 0001438  87.9787 272.1591 14.82142646294984
CSS (TIANHE)            
1 48274U 21035A   26043.23740446  .00027248  00000+0  33631-3 0  9992
2 48274  41.4683   2.8971 0004186  69.0977 291.0309 15.59536312273632
COSMOS 2550             
1 48865U 21056A   26043.21679206 -.00000041  00000+0  45834-5 0  9997
2 48865  67.1431 117.9841 0008316 270.1428  89.8774 15.33827954259554
CZ-2C R/B               
1 52794U 22058K   26043.16568966  .00031977  00000+0  49978-3 0  9992
2 52794  50.1889  89.4004 0042227  92.2514 268.3292 15.52423580206167
